[{"OBJECT_NAME":"VIGORIDE-3","OBJECT_ID":"2022-057AE","EPOCH":"2026-03-09T22:06:57.048768","MEAN_MOTION":15.2610122,"ECCENTRICITY":0.00097778,"INCLINATION":97.6431,"RA_OF_ASC_NODE":206.4459,"ARG_OF_PERICENTER":111.2279,"MEAN_ANOMALY":249.0004,"EPHEMERIS_TYPE":0,"CLASSIFICATION_TYPE":"U","NORAD_CAT_ID":52760,"ELEMENT_SET_NO":999,"REV_AT_EPOCH":21001,"BSTAR":0.00033325795,"MEAN_MOTION_DOT":8.532e-5,"MEAN_MOTION_DDOT":0},{"OBJECT_NAME":"STARLINK-31852","OBJECT_ID":"2024-097G","EPOCH":"2026-03-09T13:01:45.924960","MEAN_MOTION":15.27576223,"ECCENTRICITY":0.00013694,"INCLINATION":43.0008,"RA_OF_ASC_NODE":267.4595,"ARG_OF_PERICENTER":258.3775,"MEAN_ANOMALY":101.6923,"EPHEMERIS_TYPE":0,"CLASSIFICATION_TYPE":"U","NORAD_CAT_ID":59841,"ELEMENT_SET_NO":999,"REV_AT_EPOCH":10198,"BSTAR":-1.3423639e-5,"MEAN_MOTION_DOT":-6.31e-6,"MEAN_MOTION_DDOT":0}]
